{
  "type": "FeatureCollection",
  "features": [
    {
      "type": "Feature",
      "id": "D001",
      "geometry": {
        "type": "LineString",
        "coordinates": [
          [
            116.26906365,
            40.15327922
          ],
          [
            116.26907496,
            40.15331983
          ],
          [
            116.2690867,
            40.15331991
          ],
          [
            116.26909844,
            40.15331998
          ],
          [
            116.26911018,
            40.15332005
          ],
          [
            116.26912192,
            40.15332013
          ],
          [
            116.26913356,
            40.15332921
          ],
          [
            116.2691453,
            40.15332928
          ],
          [
            116.26915705,
            40.15332936
          ],
          [
            116.26916879,
            40.15332943
          ],
          [
            116.26918053,
            40.15332951
          ],
          [
            116.26919227,
            40.15332958
          ],
          [
            116.26920391,
            40.15333866
          ],
          [
            116.26921565,
            40.15333874
          ],
          [
            116.26922739,
            40.15333881
          ],
          [
            116.26923913,
            40.15333889
          ],
          [
            116.26925087,
            40.15333896
          ],
          [
            116.26926261,
            40.15333903
          ],
          [
            116.26927435,
            40.15333911
          ],
          [
            116.269286,
            40.15334819
          ],
          [
            116.26929774,
            40.15334827
          ],
          [
            116.26929774,
            40.15334827
          ]
        ]
      },
      "properties": {
        "id": "D001",
        "length_m": 24.86,
        "reason": "iterative_degree_lt_2_pruning"
      }
    },
    {
      "type": "Feature",
      "id": "D002",
      "geometry": {
        "type": "LineString",
        "coordinates": [
          [
            116.26864355,
            40.15522711
          ],
          [
            116.26864355,
            40.15522711
          ],
          [
            116.26863181,
            40.15522703
          ],
          [
            116.26861998,
            40.15523597
          ],
          [
            116.26860823,
            40.15523589
          ],
          [
            116.26859649,
            40.15523582
          ],
          [
            116.26858475,
            40.15523575
          ],
          [
            116.26857301,
            40.15523567
          ],
          [
            116.26856127,
            40.1552356
          ],
          [
            116.26854953,
            40.15523552
          ],
          [
            116.26853779,
            40.15523545
          ],
          [
            116.26852605,
            40.15523538
          ],
          [
            116.26851431,
            40.1552353
          ],
          [
            116.26850257,
            40.15523523
          ],
          [
            116.26849083,
            40.15523515
          ],
          [
            116.26847909,
            40.15523508
          ],
          [
            116.26846744,
            40.155226
          ],
          [
            116.2684557,
            40.15522592
          ],
          [
            116.26844396,
            40.15522585
          ],
          [
            116.26843222,
            40.15522577
          ],
          [
            116.26842048,
            40.1552257
          ],
          [
            116.26840874,
            40.15522562
          ],
          [
            116.268397,
            40.15522555
          ],
          [
            116.26838526,
            40.15522548
          ],
          [
            116.26837351,
            40.1552254
          ],
          [
            116.26836177,
            40.15522533
          ],
          [
            116.26835003,
            40.15522525
          ],
          [
            116.26833829,
            40.15522518
          ],
          [
            116.26832655,
            40.15522511
          ],
          [
            116.26831481,
            40.15522503
          ],
          [
            116.26830307,
            40.15522496
          ],
          [
            116.26830307,
            40.15522496
          ]
        ]
      },
      "properties": {
        "id": "D002",
        "length_m": 29.84,
        "reason": "iterative_degree_lt_2_pruning"
      }
    },
    {
      "type": "Feature",
      "id": "D003",
      "geometry": {
        "type": "LineString",
        "coordinates": [
          [
            116.26830152,
            40.1553691
          ],
          [
            116.26830152,
            40.1553691
          ],
          [
            116.26831326,
            40.15536917
          ],
          [
            116.26832491,
            40.15537826
          ],
          [
            116.26833665,
            40.15537833
          ],
          [
            116.26834829,
            40.15538741
          ],
          [
            116.26836003,
            40.15538749
          ],
          [
            116.26837177,
            40.15538756
          ],
          [
            116.26838342,
            40.15539664
          ],
          [
            116.26839516,
            40.15539672
          ],
          [
            116.2684069,
            40.15539679
          ],
          [
            116.26841854,
            40.15540588
          ],
          [
            116.26843029,
            40.15540595
          ],
          [
            116.26844203,
            40.15540602
          ],
          [
            116.26845377,
            40.1554061
          ],
          [
            116.26846541,
            40.15541518
          ],
          [
            116.26847715,
            40.15541525
          ],
          [
            116.26848889,
            40.15541533
          ],
          [
            116.26850054,
            40.15542441
          ],
          [
            116.26851218,
            40.1554335
          ],
          [
            116.26852392,
            40.15543357
          ],
          [
            116.26853576,
            40.15542463
          ],
          [
            116.26853576,
            40.15542463
          ]
        ]
      },
      "properties": {
        "id": "D003",
        "length_m": 23.32,
        "reason": "iterative_degree_lt_2_pruning"
      }
    },
    {
      "type": "Feature",
      "id": "D004",
      "geometry": {
        "type": "LineString",
        "coordinates": [
          [
            116.26147676,
            40.15455096
          ],
          [
            116.26147676,
            40.15455096
          ],
          [
            116.26147686,
            40.15454195
          ],
          [
            116.26147696,
            40.15453294
          ],
          [
            116.2614888,
            40.15452401
          ],
          [
            116.26148889,
            40.154515
          ],
          [
            116.26148899,
            40.15450599
          ],
          [
            116.26150083,
            40.15449705
          ],
          [
            116.26150093,
            40.15448805
          ],
          [
            116.26150102,
            40.15447904
          ],
          [
            116.26150112,
            40.15447003
          ],
          [
            116.26151296,
            40.15446109
          ],
          [
            116.26151306,
            40.15445209
          ],
          [
            116.26151316,
            40.15444308
          ],
          [
            116.26151325,
            40.15443407
          ],
          [
            116.26151335,
            40.15442506
          ],
          [
            116.26151345,
            40.15441605
          ],
          [
            116.26151355,
            40.15440704
          ],
          [
            116.26151364,
            40.15439803
          ],
          [
            116.26151374,
            40.15438902
          ],
          [
            116.26151374,
            40.15438902
          ]
        ]
      },
      "properties": {
        "id": "D004",
        "length_m": 19.25,
        "reason": "iterative_degree_lt_2_pruning"
      }
    }
  ]
}